ONEWEB-0144             
1 47290U 20100AJ  24233.20637442 -.00000207  00000+0 -61110-3 0  9999
2 47290  87.8926 123.2882 0001655  92.8778 267.2540 13.12440601177214
ONEWEB-0145             
1 47291U 20100AK  24233.25343829 -.00000234  00000+0 -68474-3 0  9998
2 47291  87.8923 123.3035 0001854  81.7870 278.3469 13.12445389177417
ONEWEB-0146             
1 47292U 20100AL  24233.25016346 -.00000100  00000+0 -31304-3 0  9994
2 47292  87.8926 123.2877 0001691  62.0022 298.1277 13.12443283177322
ONEWEB-0147             
1 47293U 20100AM  24233.59727946  .00000220  00000+0  57712-3 0  9999
2 47293  87.8922 123.2100 0001550  85.9535 274.1771 13.12446052177268
ONEWEB-0115             
1 48042U 21025A   24233.61175837  .00000303  00000+0  79433-3 0  9994
2 48042  87.8868  92.6934 0001617  77.4478 282.6832 13.13470224166225
ONEWEB-0152             
1 48043U 21025B   24233.62445105 -.00000036  00000+0 -13308-3 0  9998
2 48043  87.8873  92.6912 0001622  80.0791 280.0521 13.13469740166185
ONEWEB-0153             
1 48044U 21025C   24233.60223934  .00000324  00000+0  85212-3 0  9992
2 48044  87.8878  92.6851 0001744  81.9607 278.1720 13.13470621166172
ONEWEB-0154             
1 48045U 21025D   24233.59906507  .00000275  00000+0  71941-3 0  9994
2 48045  87.8873  92.6950 0001668  83.4009 276.7310 13.13470883166131
